{"fetched_at":"2026-03-30T06:02:59Z","count":15439,"tles":[{"name":"STARLINK-31300","line1":"1 58878U 24020C   26087.82447253  .00000731  00000+0  36792-4 0  9993","line2":"2 58878  53.1604 233.3335 0001030  85.1272 274.9846 15.30197473121002","category":"Starlink"}]}